[{"OBJECT_NAME":"HORIZON (RS59S)","OBJECT_ID":"2024-199Y","EPOCH":"2026-03-09T22:30:11.638080","MEAN_MOTION":15.70291895,"ECCENTRICITY":0.00030615,"INCLINATION":97.3063,"RA_OF_ASC_NODE":307.7521,"ARG_OF_PERICENTER":244.864,"MEAN_ANOMALY":115.2305,"EPHEMERIS_TYPE":0,"CLASSIFICATION_TYPE":"U","NORAD_CAT_ID":61757,"ELEMENT_SET_NO":999,"REV_AT_EPOCH":12246,"BSTAR":0.00120059,"MEAN_MOTION_DOT":0.00148042,"MEAN_MOTION_DDOT":0},{"OBJECT_NAME":"STARLINK-11343 [DTC]","OBJECT_ID":"2024-213K","EPOCH":"2026-03-09T05:51:18.747072","MEAN_MOTION":15.69713352,"ECCENTRICITY":0.00017583,"INCLINATION":53.1575,"RA_OF_ASC_NODE":43.5728,"ARG_OF_PERICENTER":54.7651,"MEAN_ANOMALY":305.3532,"EPHEMERIS_TYPE":0,"CLASSIFICATION_TYPE":"U","NORAD_CAT_ID":62017,"ELEMENT_SET_NO":999,"REV_AT_EPOCH":7484,"BSTAR":0.0019291825,"MEAN_MOTION_DOT":0.00240049,"MEAN_MOTION_DDOT":0}]
